[Satellite]
VERSION=1.1
NAME=THOR III
NICKNAME=THOR III
TLE1=1 25358U 98035A   17185.39063401 -.00000052  00000-0  00000-0 0  9994
TLE2=2 25358   5.4538  59.0111 0001625  42.6120 317.2780  1.00272205 70066
